{
  "type": "FeatureCollection",
  "features": [
    {
      "type": "Feature",
      "properties": {
        "norad_id": 34641,
        "name": "COSMOS 2251 DEB",
        "group": "cosmos-2251-debris",
        "lat": 44.865838062918314,
        "lon": -142.1153310741288,
        "alt_km": 727.7709866226733,
        "timestamp": "2025-12-26T21:25:53.404330+00:00",
        "meta_object_name": "COSMOS 2251 DEB",
        "meta_object_id": "1993-036XN",
        "meta_epoch": "2025-12-26T14:54:30.263904",
        "meta_mean_motion": 14.5208918,
        "meta_eccentricity": 0.0019151,
        "meta_inclination": 73.8391,
        "meta_ra_of_asc_node": 55.1782,
        "meta_arg_of_pericenter": 328.0054,
        "meta_mean_anomaly": 184.3533,
        "meta_ephemeris_type": 0,
        "meta_classification_type": "U",
        "meta_norad_cat_id": 34641,
        "meta_element_set_no": 999,
        "meta_rev_at_epoch": 88457,
        "meta_bstar": 0.00070823386,
        "meta_mean_motion_dot": 2.845e-05,
        "meta_mean_motion_ddot": 0,
        "tle_line1": "1 34641U 93036XN  25360.62118361  .00002845  00000+0  70823-3 0  9994",
        "tle_line2": "2 34641  73.8391  55.1782 0019151 328.0054 184.3533 14.52089180884575"
      },
      "geometry": {
        "type": "Point",
        "coordinates": [
          -142.1153310741288,
          44.865838062918314
        ]
      }
    },
    {
      "type": "Feature",
      "properties": {
        "norad_id": 34642,
        "name": "COSMOS 2251 DEB",
        "group": "cosmos-2251-debris",
        "lat": 31.63758526928259,
        "lon": -34.535490252564095,
        "alt_km": 914.4053205177461,
        "timestamp": "2025-12-26T21:25:53.404340+00:00",
        "meta_object_name": "COSMOS 2251 DEB",
        "meta_object_id": "1993-036XP",
        "meta_epoch": "2025-12-26T08:15:27.972864",
        "meta_mean_motion": 13.99010447,
        "meta_eccentricity": 0.02064198,
        "meta_inclination": 74.0043,
        "meta_ra_of_asc_node": 316.2358,
        "meta_arg_of_pericenter": 132.8171,
        "meta_mean_anomaly": 19.2317,
        "meta_ephemeris_type": 0,
        "meta_classification_type": "U",
        "meta_norad_cat_id": 34642,
        "meta_element_set_no": 999,
        "meta_rev_at_epoch": 85483,
        "meta_bstar": 0.00085901291,
        "meta_mean_motion_dot": 1.468e-05,
        "meta_mean_motion_ddot": 0,
        "tle_line1": "1 34642U 93036XP  25360.34407376  .00001468  00000+0  85901-3 0  9994",
        "tle_line2": "2 34642  74.0043 316.2358 0206419 132.8171  19.2317 13.99010447854831"
      },
      "geometry": {
        "type": "Point",
        "coordinates": [
          -34.535490252564095,
          31.63758526928259
        ]
      }
    },
    {
      "type": "Feature",
      "properties": {
        "norad_id": 34671,
        "name": "COSMOS 2251 DEB",
        "group": "cosmos-2251-debris",
        "lat": -71.1749521758915,
        "lon": 49.816659421552615,
        "alt_km": 677.3114765349601,
        "timestamp": "2025-12-26T21:25:53.404350+00:00",
        "meta_object_name": "COSMOS 2251 DEB",
        "meta_object_id": "1993-036XR",
        "meta_epoch": "2025-12-24T07:45:05.041728",
        "meta_mean_motion": 14.67129194,
        "meta_eccentricity": 0.00105725,
        "meta_inclination": 74.0275,
        "meta_ra_of_asc_node": 111.9321,
        "meta_arg_of_pericenter": 193.4023,
        "meta_mean_anomaly": 198.0562,
        "meta_ephemeris_type": 0,
        "meta_classification_type": "U",
        "meta_norad_cat_id": 34671,
        "meta_element_set_no": 999,
        "meta_rev_at_epoch": 88467,
        "meta_bstar": 0.0017522099,
        "meta_mean_motion_dot": 9.84e-05,
        "meta_mean_motion_ddot": 0,
        "tle_line1": "1 34671U 93036XR  25358.32297502  .00009840  00000+0  17522-2 0  9994",
        "tle_line2": "2 34671  74.0275 111.9321 0010572 193.4023 198.0562 14.67129194884671"
      },
      "geometry": {
        "type": "Point",
        "coordinates": [
          49.816659421552615,
          -71.1749521758915
        ]
      }
    },
    {
      "type": "Feature",
      "properties": {
        "norad_id": 34672,
        "name": "COSMOS 2251 DEB",
        "group": "cosmos-2251-debris",
        "lat": -19.430653120655126,
        "lon": -86.20765774168953,
        "alt_km": 757.8987291270596,
        "timestamp": "2025-12-26T21:25:53.404361+00:00",
        "meta_object_name": "COSMOS 2251 DEB",
        "meta_object_id": "1993-036XS",
        "meta_epoch": "2025-12-23T01:39:52.431840",
        "meta_mean_motion": 14.36424251,
        "meta_eccentricity": 0.00243004,
        "meta_inclination": 74.0343,
        "meta_ra_of_asc_node": 286.6106,
        "meta_arg_of_pericenter": 356.389,
        "meta_mean_anomaly": 18.9966,
        "meta_ephemeris_type": 0,
        "meta_classification_type": "U",
        "meta_norad_cat_id": 34672,
        "meta_element_set_no": 999,
        "meta_rev_at_epoch": 65326,
        "meta_bstar": 0.00025150328,
        "meta_mean_motion_dot": 7.13e-06,
        "meta_mean_motion_ddot": 0,
        "tle_line1": "1 34672U 93036XS  25357.06935685  .00000713  00000+0  25150-3 0  9993",
        "tle_line2": "2 34672  74.0343 286.6106 0024300 356.3890  18.9966 14.36424251653260"
      },
      "geometry": {
        "type": "Point",
        "coordinates": [
          -86.20765774168953,
          -19.430653120655126
        ]
      }
    },
    {
      "type": "Feature",
      "properties": {
        "norad_id": 34678,
        "name": "COSMOS 2251 DEB",
        "group": "cosmos-2251-debris",
        "lat": -18.780877937030976,
        "lon": 165.5466107637563,
        "alt_km": 813.9303089058121,
        "timestamp": "2025-12-26T21:25:53.404371+00:00",
        "meta_object_name": "COSMOS 2251 DEB",
        "meta_object_id": "1993-036XY",
        "meta_epoch": "2025-12-26T00:40:23.592576",
        "meta_mean_motion": 14.30067313,
        "meta_eccentricity": 0.00248357,
        "meta_inclination": 74.0378,
        "meta_ra_of_asc_node": 341.533,
        "meta_arg_of_pericenter": 26.614,
        "meta_mean_anomaly": 41.7325,
        "meta_ephemeris_type": 0,
        "meta_classification_type": "U",
        "meta_norad_cat_id": 34678,
        "meta_element_set_no": 999,
        "meta_rev_at_epoch": 87569,
        "meta_bstar": 3.582597e-05,
        "meta_mean_motion_dot": 6.7e-07,
        "meta_mean_motion_ddot": 0,
        "tle_line1": "1 34678U 93036XY  25360.02805084  .00000067  00000+0  35826-4 0  9992",
        "tle_line2": "2 34678  74.0378 341.5330 0024835  26.6140  41.7325 14.30067313875694"
      },
      "geometry": {
        "type": "Point",
        "coordinates": [
          165.5466107637563,
          -18.780877937030976
        ]
      }
    },
    {
      "type": "Feature",
      "properties": {
        "norad_id": 34680,
        "name": "COSMOS 2251 DEB",
        "group": "cosmos-2251-debris",
        "lat": -56.965053252315634,
        "lon": -51.063868421339215,
        "alt_km": 693.8869791378656,
        "timestamp": "2025-12-26T21:25:53.404381+00:00",
        "meta_object_name": "COSMOS 2251 DEB",
        "meta_object_id": "1993-036YA",
        "meta_epoch": "2025-12-26T15:42:39.280320",
        "meta_mean_motion": 14.607692,
        "meta_eccentricity": 0.00061413,
        "meta_inclination": 74.0436,
        "meta_ra_of_asc_node": 103.2882,
        "meta_arg_of_pericenter": 205.4057,
        "meta_mean_anomaly": 222.2258,
        "meta_ephemeris_type": 0,
        "meta_classification_type": "U",
        "meta_norad_cat_id": 34680,
        "meta_element_set_no": 999,
        "meta_rev_at_epoch": 88531,
        "meta_bstar": 0.0011905825,
        "meta_mean_motion_dot": 5.787e-05,
        "meta_mean_motion_ddot": 0,
        "tle_line1": "1 34680U 93036YA  25360.65462130  .00005787  00000+0  11906-2 0  9990",
        "tle_line2": "2 34680  74.0436 103.2882 0006141 205.4057 222.2258 14.60769200885319"
      },
      "geometry": {
        "type": "Point",
        "coordinates": [
          -51.063868421339215,
          -56.965053252315634
        ]
      }
    },
    {
      "type": "Feature",
      "properties": {
        "norad_id": 34681,
        "name": "COSMOS 2251 DEB",
        "group": "cosmos-2251-debris",
        "lat": -3.1997704557765605,
        "lon": 83.3315010569659,
        "alt_km": 633.6899926510887,
        "timestamp": "2025-12-26T21:25:53.404391+00:00",
        "meta_object_name": "COSMOS 2251 DEB",
        "meta_object_id": "1993-036YB",
        "meta_epoch": "2025-12-26T05:07:13.597248",
        "meta_mean_motion": 14.83514695,
        "meta_eccentricity": 0.00256931,
        "meta_inclination": 74.0621,
        "meta_ra_of_asc_node": 263.7595,
        "meta_arg_of_pericenter": 318.4734,
        "meta_mean_anomaly": 196.8058,
        "meta_ephemeris_type": 0,
        "meta_classification_type": "U",
        "meta_norad_cat_id": 34681,
        "meta_element_set_no": 999,
        "meta_rev_at_epoch": 89470,
        "meta_bstar": 0.0012321066,
        "meta_mean_motion_dot": 0.00010178,
        "meta_mean_motion_ddot": 0,
        "tle_line1": "1 34681U 93036YB  25360.21335182  .00010178  00000+0  12321-2 0  9991",
        "tle_line2": "2 34681  74.0621 263.7595 0025693 318.4734 196.8058 14.83514695894707"
      },
      "geometry": {
        "type": "Point",
        "coordinates": [
          83.3315010569659,
          -3.1997704557765605
        ]
      }
    }
  ]
}